2024-092F               
1 59778U 24092F   26068.91303411  .00025723  00000+0  79143-3 0  9992
2 59778  97.6418 198.4543 0008646 142.6506 217.5339 15.33614440100535
STARLINK-33862          
1 63709U 25087N   26068.71330932  .00030746  00000+0  10458-2 0  9996
2 63709  53.1574 219.4155 0000844  97.5132 262.5964 15.30204885 49207
